[{"OBJECT_NAME":"STARLINK-30317","OBJECT_ID":"2023-124N","EPOCH":"2025-10-25T04:06:29.393856","MEAN_MOTION":15.80191157,"ECCENTRICITY":0.00026529,"INCLINATION":53.1382,"RA_OF_ASC_NODE":100.8615,"ARG_OF_PERICENTER":2.9929,"MEAN_ANOMALY":357.1108,"EPHEMERIS_TYPE":0,"CLASSIFICATION_TYPE":"U","NORAD_CAT_ID":57675,"ELEMENT_SET_NO":999,"REV_AT_EPOCH":12303,"BSTAR":-0.00013889369,"MEAN_MOTION_DOT":-0.00027185,"MEAN_MOTION_DDOT":0},{"OBJECT_NAME":"STARLINK-30313","OBJECT_ID":"2023-124P","EPOCH":"2025-10-28T03:36:11.670048","MEAN_MOTION":15.3019776,"ECCENTRICITY":0.00011628,"INCLINATION":53.1607,"RA_OF_ASC_NODE":102.6201,"ARG_OF_PERICENTER":90.9792,"MEAN_ANOMALY":269.1342,"EPHEMERIS_TYPE":0,"CLASSIFICATION_TYPE":"U","NORAD_CAT_ID":57676,"ELEMENT_SET_NO":999,"REV_AT_EPOCH":12327,"BSTAR":6.4478485e-5,"MEAN_MOTION_DOT":1.551e-5,"MEAN_MOTION_DDOT":0},{"OBJECT_NAME":"STARLINK-30303","OBJECT_ID":"2023-124Q","EPOCH":"2025-10-27T20:17:40.240896","MEAN_MOTION":15.30192472,"ECCENTRICITY":0.00012082,"INCLINATION":53.1603,"RA_OF_ASC_NODE":103.5288,"ARG_OF_PERICENTER":85.0703,"MEAN_ANOMALY":275.0436,"EPHEMERIS_TYPE":0,"CLASSIFICATION_TYPE":"U","NORAD_CAT_ID":57677,"ELEMENT_SET_NO":999,"REV_AT_EPOCH":12323,"BSTAR":3.2359544e-5,"MEAN_MOTION_DOT":5.99e-6,"MEAN_MOTION_DDOT":0},{"OBJECT_NAME":"STARLINK-30320","OBJECT_ID":"2023-124R","EPOCH":"2025-10-28T03:15:38.600352","MEAN_MOTION":15.30195996,"ECCENTRICITY":0.00011788,"INCLINATION":53.1601,"RA_OF_ASC_NODE":89.7487,"ARG_OF_PERICENTER":91.3384,"MEAN_ANOMALY":268.7752,"EPHEMERIS_TYPE":0,"CLASSIFICATION_TYPE":"U","NORAD_CAT_ID":57678,"ELEMENT_SET_NO":999,"REV_AT_EPOCH":12345,"BSTAR":-1.1376938e-5,"MEAN_MOTION_DOT":-6.96e-6,"MEAN_MOTION_DDOT":0},{"OBJECT_NAME":"STARLINK-30321","OBJECT_ID":"2023-124S","EPOCH":"2025-10-28T04:23:07.259424","MEAN_MOTION":15.30201826,"ECCENTRICITY":0.00012779,"INCLINATION":53.16,"RA_OF_ASC_NODE":102.0812,"ARG_OF_PERICENTER":75.8427,"MEAN_ANOMALY":284.2715,"EPHEMERIS_TYPE":0,"CLASSIFICATION_TYPE":"U","NORAD_CAT_ID":57679,"ELEMENT_SET_NO":999,"REV_AT_EPOCH":12328,"BSTAR":7.7580486e-5,"MEAN_MOTION_DOT":1.939e-5,"MEAN_MOTION_DDOT":0},{"OBJECT_NAME":"STARLINK-30283","OBJECT_ID":"2023-124T","EPOCH":"2025-10-28T03:45:17.783712","MEAN_MOTION":15.30202425,"ECCENTRICITY":0.00010015,"INCLINATION":53.1596,"RA_OF_ASC_NODE":102.5946,"ARG_OF_PERICENTER":89.3516,"MEAN_ANOMALY":270.7599,"EPHEMERIS_TYPE":0,"CLASSIFICATION_TYPE":"U","NORAD_CAT_ID":57680,"ELEMENT_SET_NO":999,"REV_AT_EPOCH":12327,"BSTAR":-4.9339828e-5,"MEAN_MOTION_DOT":-1.82e-5,"MEAN_MOTION_DDOT":0},{"OBJECT_NAME":"STARLINK-30273","OBJECT_ID":"2023-124U","EPOCH":"2025-10-28T04:27:46.886976","MEAN_MOTION":15.30193308,"ECCENTRICITY":0.00011937,"INCLINATION":53.1606,"RA_OF_ASC_NODE":102.5008,"ARG_OF_PERICENTER":79.6021,"MEAN_ANOMALY":280.5115,"EPHEMERIS_TYPE":0,"CLASSIFICATION_TYPE":"U","NORAD_CAT_ID":57681,"ELEMENT_SET_NO":999,"REV_AT_EPOCH":12327,"BSTAR":2.5975891e-5,"MEAN_MOTION_DOT":4.1e-6,"MEAN_MOTION_DDOT":0},{"OBJECT_NAME":"STARLINK-30297","OBJECT_ID":"2023-124V","EPOCH":"2025-10-28T03:40:45.811200","MEAN_MOTION":15.30190957,"ECCENTRICITY":0.000219,"INCLINATION":53.1607,"RA_OF_ASC_NODE":102.6391,"ARG_OF_PERICENTER":82.3231,"MEAN_ANOMALY":277.8019,"EPHEMERIS_TYPE":0,"CLASSIFICATION_TYPE":"U","NORAD_CAT_ID":57682,"ELEMENT_SET_NO":999,"REV_AT_EPOCH":12327,"BSTAR":-1.5295205e-5,"MEAN_MOTION_DOT":-8.13e-6,"MEAN_MOTION_DDOT":0},{"OBJECT_NAME":"STARLINK-30295","OBJECT_ID":"2023-124W","EPOCH":"2025-10-28T03:58:58.266624","MEAN_MOTION":15.3019315,"ECCENTRICITY":0.00012235,"INCLINATION":53.16,"RA_OF_ASC_NODE":102.6311,"ARG_OF_PERICENTER":98.1273,"MEAN_ANOMALY":261.9867,"EPHEMERIS_TYPE":0,"CLASSIFICATION_TYPE":"U","NORAD_CAT_ID":57683,"ELEMENT_SET_NO":999,"REV_AT_EPOCH":12327,"BSTAR":5.5090028e-5,"MEAN_MOTION_DOT":1.272e-5,"MEAN_MOTION_DDOT":0},{"OBJECT_NAME":"STARLINK-30288","OBJECT_ID":"2023-129A","EPOCH":"2025-10-29T12:06:42.434784","MEAN_MOTION":15.02556633,"ECCENTRICITY":0.0001109,"INCLINATION":43.0043,"RA_OF_ASC_NODE":112.8678,"ARG_OF_PERICENTER":269.5368,"MEAN_ANOMALY":90.5347,"EPHEMERIS_TYPE":0,"CLASSIFICATION_TYPE":"U","NORAD_CAT_ID":57698,"ELEMENT_SET_NO":999,"REV_AT_EPOCH":12092,"BSTAR":-0.00029539,"MEAN_MOTION_DOT":-4.194e-5,"MEAN_MOTION_DDOT":0},{"OBJECT_NAME":"STARLINK-30347","OBJECT_ID":"2023-129B","EPOCH":"2025-10-28T13:23:06.883584","MEAN_MOTION":15.0253662,"ECCENTRICITY":0.00011858,"INCLINATION":43.0023,"RA_OF_ASC_NODE":105.8747,"ARG_OF_PERICENTER":268.9828,"MEAN_ANOMALY":91.0878,"EPHEMERIS_TYPE":0,"CLASSIFICATION_TYPE":"U","NORAD_CAT_ID":57699,"ELEMENT_SET_NO":999,"REV_AT_EPOCH":12092,"BSTAR":5.5198639e-5,"MEAN_MOTION_DOT":5.42e-6,"MEAN_MOTION_DDOT":0},{"OBJECT_NAME":"STARLINK-30332","OBJECT_ID":"2023-129C","EPOCH":"2025-10-29T12:01:53.728320","MEAN_MOTION":15.02541758,"ECCENTRICITY":0.000122,"INCLINATION":43.0025,"RA_OF_ASC_NODE":112.8428,"ARG_OF_PERICENTER":270.8984,"MEAN_ANOMALY":89.1718,"EPHEMERIS_TYPE":0,"CLASSIFICATION_TYPE":"U","NORAD_CAT_ID":57700,"ELEMENT_SET_NO":999,"REV_AT_EPOCH":12078,"BSTAR":8.866e-5,"MEAN_MOTION_DOT":9.94e-6,"MEAN_MOTION_DDOT":0},{"OBJECT_NAME":"STARLINK-30345","OBJECT_ID":"2023-129D","EPOCH":"2025-10-28T13:22:42.587040","MEAN_MOTION":15.02545204,"ECCENTRICITY":0.00011451,"INCLINATION":43.0033,"RA_OF_ASC_NODE":118.6606,"ARG_OF_PERICENTER":254.9862,"MEAN_ANOMALY":105.0853,"EPHEMERIS_TYPE":0,"CLASSIFICATION_TYPE":"U","NORAD_CAT_ID":57701,"ELEMENT_SET_NO":999,"REV_AT_EPOCH":12063,"BSTAR":6.971435e-6,"MEAN_MOTION_DOT":-1.09e-6,"MEAN_MOTION_DDOT":0},{"OBJECT_NAME":"STARLINK-30333","OBJECT_ID":"2023-129E","EPOCH":"2025-10-29T13:08:59.265024","MEAN_MOTION":15.02560839,"ECCENTRICITY":0.0001155,"INCLINATION":43.0022,"RA_OF_ASC_NODE":113.1907,"ARG_OF_PERICENTER":253.0447,"MEAN_ANOMALY":107.0269,"EPHEMERIS_TYPE":0,"CLASSIFICATION_TYPE":"U","NORAD_CAT_ID":57702,"ELEMENT_SET_NO":999,"REV_AT_EPOCH":12092,"BSTAR":0.00024908,"MEAN_MOTION_DOT":3.165e-5,"MEAN_MOTION_DDOT":0},{"OBJECT_NAME":"STARLINK-30336","OBJECT_ID":"2023-129F","EPOCH":"2025-10-29T13:13:49.416960","MEAN_MOTION":15.02555574,"ECCENTRICITY":0.0001373,"INCLINATION":43.0034,"RA_OF_ASC_NODE":113.2211,"ARG_OF_PERICENTER":272.3967,"MEAN_ANOMALY":87.6718,"EPHEMERIS_TYPE":0,"CLASSIFICATION_TYPE":"U","NORAD_CAT_ID":57703,"ELEMENT_SET_NO":999,"REV_AT_EPOCH":12078,"BSTAR":-0.00028607,"MEAN_MOTION_DOT":-4.068e-5,"MEAN_MOTION_DDOT":0},{"OBJECT_NAME":"STARLINK-30346","OBJECT_ID":"2023-129G","EPOCH":"2025-10-29T12:59:26.755296","MEAN_MOTION":15.02528147,"ECCENTRICITY":0.0001408,"INCLINATION":43.0038,"RA_OF_ASC_NODE":113.1412,"ARG_OF_PERICENTER":263.0612,"MEAN_ANOMALY":97.007,"EPHEMERIS_TYPE":0,"CLASSIFICATION_TYPE":"U","NORAD_CAT_ID":57704,"ELEMENT_SET_NO":999,"REV_AT_EPOCH":12078,"BSTAR":0.00013217,"MEAN_MOTION_DOT":1.582e-5,"MEAN_MOTION_DDOT":0},{"OBJECT_NAME":"STARLINK-30327","OBJECT_ID":"2023-129K","EPOCH":"2025-10-28T11:55:57.611712","MEAN_MOTION":15.11796563,"ECCENTRICITY":0.00125288,"INCLINATION":42.9987,"RA_OF_ASC_NODE":102.1285,"ARG_OF_PERICENTER":290.3186,"MEAN_ANOMALY":69.6313,"EPHEMERIS_TYPE":0,"CLASSIFICATION_TYPE":"U","NORAD_CAT_ID":57707,"ELEMENT_SET_NO":999,"REV_AT_EPOCH":12082,"BSTAR":0.0032248497,"MEAN_MOTION_DOT":0.00056347,"MEAN_MOTION_DDOT":0},{"OBJECT_NAME":"STARLINK-30315","OBJECT_ID":"2023-129L","EPOCH":"2025-10-29T12:45:03.513024","MEAN_MOTION":15.02533173,"ECCENTRICITY":0.0001204,"INCLINATION":43.0033,"RA_OF_ASC_NODE":113.07,"ARG_OF_PERICENTER":265.6427,"MEAN_ANOMALY":94.4278,"EPHEMERIS_TYPE":0,"CLASSIFICATION_TYPE":"U","NORAD_CAT_ID":57708,"ELEMENT_SET_NO":999,"REV_AT_EPOCH":12092,"BSTAR":8.9536e-5,"MEAN_MOTION_DOT":1.006e-5,"MEAN_MOTION_DDOT":0},{"OBJECT_NAME":"STARLINK-30287","OBJECT_ID":"2023-129M","EPOCH":"2025-10-29T12:54:38.753856","MEAN_MOTION":15.02537516,"ECCENTRICITY":0.0001477,"INCLINATION":43.004,"RA_OF_ASC_NODE":113.1222,"ARG_OF_PERICENTER":266.1193,"MEAN_ANOMALY":93.948,"EPHEMERIS_TYPE":0,"CLASSIFICATION_TYPE":"U","NORAD_CAT_ID":57709,"ELEMENT_SET_NO":999,"REV_AT_EPOCH":12092,"BSTAR":7.5171e-5,"MEAN_MOTION_DOT":8.12e-6,"MEAN_MOTION_DDOT":0},{"OBJECT_NAME":"STARLINK-30335","OBJECT_ID":"2023-129N","EPOCH":"2025-10-29T12:49:51.136032","MEAN_MOTION":15.02536378,"ECCENTRICITY":0.0001375,"INCLINATION":43.0035,"RA_OF_ASC_NODE":113.0927,"ARG_OF_PERICENTER":268.5397,"MEAN_ANOMALY":91.5288,"EPHEMERIS_TYPE":0,"CLASSIFICATION_TYPE":"U","NORAD_CAT_ID":57710,"ELEMENT_SET_NO":999,"REV_AT_EPOCH":12092,"BSTAR":6.0301e-5,"MEAN_MOTION_DOT":6.11e-6,"MEAN_MOTION_DDOT":0},{"OBJECT_NAME":"STARLINK-30318","OBJECT_ID":"2023-129P","EPOCH":"2025-10-29T13:04:14.306592","MEAN_MOTION":15.02533276,"ECCENTRICITY":0.0001431,"INCLINATION":43.0058,"RA_OF_ASC_NODE":113.1558,"ARG_OF_PERICENTER":265.2824,"MEAN_ANOMALY":94.7855,"EPHEMERIS_TYPE":0,"CLASSIFICATION_TYPE":"U","NORAD_CAT_ID":57711,"ELEMENT_SET_NO":999,"REV_AT_EPOCH":12078,"BSTAR":-1.6195e-5,"MEAN_MOTION_DOT":-4.22e-6,"MEAN_MOTION_DDOT":0},{"OBJECT_NAME":"STARLINK-30348","OBJECT_ID":"2023-129Q","EPOCH":"2025-10-29T12:35:28.249728","MEAN_MOTION":15.02535027,"ECCENTRICITY":0.0001216,"INCLINATION":43.0034,"RA_OF_ASC_NODE":113.0157,"ARG_OF_PERICENTER":267.6727,"MEAN_ANOMALY":92.3976,"EPHEMERIS_TYPE":0,"CLASSIFICATION_TYPE":"U","NORAD_CAT_ID":57712,"ELEMENT_SET_NO":999,"REV_AT_EPOCH":12092,"BSTAR":7.4293e-5,"MEAN_MOTION_DOT":8.0e-6,"MEAN_MOTION_DDOT":0},{"OBJECT_NAME":"STARLINK-30349","OBJECT_ID":"2023-129R","EPOCH":"2025-10-29T12:25:52.790304","MEAN_MOTION":15.02535679,"ECCENTRICITY":0.0001205,"INCLINATION":43.0029,"RA_OF_ASC_NODE":112.9696,"ARG_OF_PERICENTER":268.7226,"MEAN_ANOMALY":91.3478,"EPHEMERIS_TYPE":0,"CLASSIFICATION_TYPE":"U","NORAD_CAT_ID":57713,"ELEMENT_SET_NO":999,"REV_AT_EPOCH":12078,"BSTAR":3.7151e-5,"MEAN_MOTION_DOT":2.98e-6,"MEAN_MOTION_DDOT":0}]
